NORAD_CAT_ID,OBJECT_NAME,OBJECT_TYPE,EPOCH,MEAN_MOTION,ECCENTRICITY,INCLINATION,RA_OF_ASC_NODE,ARG_OF_PERICENTER,MEAN_ANOMALY,BSTAR,MEAN_MOTION_DOT,MEAN_MOTION_DDOT,TLE_LINE0,TLE_LINE1,TLE_LINE2,SEMIMAJOR_AXIS,PERIOD,APOGEE,PERIGEE,DECAYED
53992.0,STARLINK-5108,PAYLOAD,2024-02-09 02:55:26,15.0884984,0.0001928,53.2209,23.9523,114.3472,245.7722,0.00015563,2.19e-05,0.0,0 STARLINK-5108,1 53992U 22125AE  24040.12183319  .00002190  00000-0  15563-3 0  9993,2 53992  53.2209  23.9523 0001928 114.3472 245.7722 15.08849840 74868,6917.85,95.437,541.049,538.382,0.0
53992.0,STARLINK-5108,PAYLOAD,2024-02-09 09:16:58,15.0886084,0.0001754,53.2205,22.7619,104.1803,255.9384,8.0715e-05,9.97e-06,0.0,0 STARLINK-5108,1 53992U 22125AE  24040.38678730  .00000997  00000-0  80715-4 0  9992,2 53992  53.2205  22.7619 0001754 104.1803 255.9384 15.08860840 74825,6917.817,95.436,540.895,538.468,0.0
53992.0,STARLINK-5108,PAYLOAD,2024-02-10 02:46:15,15.0882355,0.0001599,53.221,19.4912,87.1022,273.0153,4.5309e-05,4.33e-06,0.0,0 STARLINK-5108,1 53992U 22125AE  24041.11545778  .00000433  00000-0  45309-4 0  9994,2 53992  53.2210  19.4912 0001599  87.1022 273.0153 15.08823550 75014,6917.931,95.439,540.902,538.689,0.0
53992.0,STARLINK-5108,PAYLOAD,2024-02-10 07:32:24,15.08834907,0.0001449,53.2174,18.5943,79.3386,280.777,3.1146e-05,2.08e-06,0.0,0 STARLINK-5108,1 53992U 22125AE  24041.31416793  .00000208  00000-0  31146-4 0  9994,2 53992  53.2174  18.5943 0001449  79.3386 280.7770 15.08834907 75048,6917.896,95.438,540.763,538.759,0.0
53992.0,STARLINK-5108,PAYLOAD,2024-02-11 07:23:10,15.0885065,0.0001564,53.2184,14.1285,95.4266,264.6905,0.00039502,6.006e-05,0.0,0 STARLINK-5108,1 53992U 22125AE  24042.30776349  .00006006  00000-0  39502-3 0  9995,2 53992  53.2184  14.1285 0001564  95.4266 264.6905 15.08850650 75194,6917.848,95.437,540.795,538.631,0.0
53992.0,STARLINK-5108,PAYLOAD,2024-02-11 21:41:39,15.08841115,0.000165,53.2178,11.4589,82.5352,277.5827,0.00035568,5.377e-05,0.0,0 STARLINK-5108,1 53992U 22125AE  24042.90393189  .00005377  00000-0  35568-3 0  9996,2 53992  53.2178  11.4589 0001650  82.5352 277.5827 15.08841115 75207,6917.877,95.437,540.883,538.601,0.0
53992.0,STARLINK-5108,PAYLOAD,2024-02-12 04:03:12,15.08849514,0.0001735,53.2183,10.2697,87.0053,273.1138,0.0004652,7.125e-05,0.0,0 STARLINK-5108,1 53992U 22125AE  24043.16888927  .00007125  00000-0  46520-3 0  9997,2 53992  53.2183  10.2697 0001735  87.0053 273.1138 15.08849514 75323,6917.851,95.437,540.917,538.516,0.0
53992.0,STARLINK-5108,PAYLOAD,2024-02-12 07:13:57,15.08862202,0.0001715,53.2185,9.6726,101.3078,258.8107,0.00080124,0.00012494,0.0,0 STARLINK-5108,1 53992U 22125AE  24043.30136516  .00012494  00000-0  80124-3 0  9996,2 53992  53.2185   9.6726 0001715 101.3078 258.8107 15.08862202 75342,6917.813,95.436,540.864,538.491,0.0
53992.0,STARLINK-5108,PAYLOAD,2024-02-13 03:53:59,15.08844738,0.0001226,53.218,5.8076,101.9281,258.1848,0.00067509,0.00010474,0.0,0 STARLINK-5108,1 53992U 22125AE  24044.16248897  .00010474  00000-0  67509-3 0  9995,2 53992  53.2180   5.8076 0001226 101.9281 258.1848 15.08844738 75475,6917.866,95.437,540.579,538.883,0.0
53992.0,STARLINK-5108,PAYLOAD,2024-02-13 07:04:45,15.08854785,0.000153,53.2182,5.2113,107.1091,253.0068,0.00087559,0.0001368,0.0,0 STARLINK-5108,1 53992U 22125AE  24044.29496710  .00013680  00000-0  87559-3 0  9997,2 53992  53.2182   5.2113 0001530 107.1091 253.0068 15.08854785 75413,6917.835,95.437,540.759,538.642,0.0
53992.0,STARLINK-5108,PAYLOAD,2024-02-14 03:44:46,15.08853498,0.0001386,53.2184,1.3474,92.0348,268.0803,0.0016247,0.00025673,0.0,0 STARLINK-5108,1 53992U 22125AE  24045.15609099  .00025673  00000-0  16247-2 0  9999,2 53992  53.2184   1.3474 0001386  92.0348 268.0803 15.08853498 75624,6917.839,95.437,540.663,538.745,0.0
53992.0,STARLINK-5108,PAYLOAD,2024-02-14 21:14:01,15.0884016,0.0001594,53.2186,358.0769,88.553,271.5645,0.0014917,0.00023532,0.0,0 STARLINK-5108,1 53992U 22125AE  24045.88473569  .00023532  00000-0  14917-2 0  9994,2 53992  53.2186 358.0769 0001594  88.5530 271.5645 15.08840160 75657,6917.88,95.438,540.848,538.642,0.0
53992.0,STARLINK-5108,PAYLOAD,2024-02-15 03:35:33,15.08849538,0.0001391,53.2174,356.889,109.9973,250.1169,0.0012483,0.0001964,0.0,0 STARLINK-5108,1 53992U 22125AE  24046.14969377  .00019640  00000-0  12483-2 0  9992,2 53992  53.2174 356.8890 0001391 109.9973 250.1169 15.08849538 75774,6917.851,95.437,540.679,538.754,0.0
53992.0,STARLINK-5108,PAYLOAD,2024-02-15 13:07:52,15.08847865,0.000119,53.2165,355.1043,103.1441,256.9684,0.00049349,7.576e-05,0.0,0 STARLINK-5108,1 53992U 22125AE  24046.54713325  .00007576  00000-0  49349-3 0  9993,2 53992  53.2165 355.1043 0001190 103.1441 256.9684 15.08847865 75833,6917.856,95.437,540.545,538.898,0.0
53992.0,STARLINK-5108,PAYLOAD,2024-02-15 21:04:48,15.08837865,0.0001872,53.2185,353.6187,107.3303,252.7894,0.00061037,9.439e-05,0.0,0 STARLINK-5108,1 53992U 22125AE  24046.87833669  .00009439  00000-0  61037-3 0  9991,2 53992  53.2185 353.6187 0001872 107.3303 252.7894 15.08837865 75800,6917.887,95.438,541.047,538.457,0.0
53992.0,STARLINK-5108,PAYLOAD,2024-02-16 03:26:20,15.08843384,0.0001932,53.2191,352.4323,125.0058,235.1116,0.00041249,6.283e-05,0.0,0 STARLINK-5108,1 53992U 22125AE  24047.14329456  .00006283  00000-0  41249-3 0  9993,2 53992  53.2191 352.4323 0001932 125.0058 235.1116 15.08843384 75925,6917.87,95.437,541.072,538.399,0.0
53992.0,STARLINK-5108,PAYLOAD,2024-02-16 12:58:39,15.08844759,0.0001403,53.2174,350.6444,117.914,242.1994,0.00046333,7.095e-05,0.0,0 STARLINK-5108,1 53992U 22125AE  24047.54073438  .00007095  00000-0  46333-3 0  9994,2 53992  53.2174 350.6444 0001403 117.9140 242.1994 15.08844759 75902,6917.866,95.437,540.701,538.76,0.0
53992.0,STARLINK-5108,PAYLOAD,2024-02-16 20:55:35,15.08835871,0.0002279,53.2182,349.1571,118.4854,241.6368,9.587e-05,1.238e-05,0.0,0 STARLINK-5108,1 53992U 22125AE  24047.87193853  .00001238  00000-0  95870-4 0  9998,2 53992  53.2182 349.1571 0002279 118.4854 241.6368 15.08835871 75954,6917.893,95.438,541.335,538.181,0.0
53992.0,STARLINK-5108,PAYLOAD,2024-02-17 03:17:07,15.088412,0.000169,53.2183,347.9705,120.1714,239.9445,0.00018234,2.615e-05,0.0,0 STARLINK-5108,1 53992U 22125AE  24048.13689742  .00002615  00000-0  18234-3 0  9993,2 53992  53.2183 347.9705 0001690 120.1714 239.9445 15.08841200 76074,6917.877,95.437,540.911,538.573,0.0
53992.0,STARLINK-5108,PAYLOAD,2024-02-17 12:49:26,15.08840663,0.0001498,53.2156,346.1833,105.6189,254.4969,0.00031485,4.727e-05,0.0,0 STARLINK-5108,1 53992U 22125AE  24048.53433925  .00004727  00000-0  31485-3 0  9996,2 53992  53.2156 346.1833 0001498 105.6189 254.4969 15.08840663 76050,6917.878,95.438,540.78,538.707,0.0
53992.0,STARLINK-5108,PAYLOAD,2024-02-18 03:07:55,15.08839519,0.0001752,53.2194,343.5073,107.4893,252.6291,0.0001247,1.697e-05,0.0,0 STARLINK-5108,1 53992U 22125AE  24049.13050112  .00001697  00000-0  12470-3 0  9992,2 53992  53.2194 343.5073 0001752 107.4893 252.6291 15.08839519 76229,6917.882,95.438,540.959,538.535,0.0
53992.0,STARLINK-5108,PAYLOAD,2024-02-18 12:40:13,15.08851225,0.0001684,53.2198,341.7202,99.1663,260.952,0.00027491,4.091e-05,0.0,0 STARLINK-5108,1 53992U 22125AE  24049.52793577  .00004091  00000-0  27491-3 0  9994,2 53992  53.2198 341.7202 0001684  99.1663 260.9520 15.08851225 76206,6917.846,95.437,540.876,538.546,0.0
53992.0,STARLINK-5108,PAYLOAD,2024-02-19 04:34:04,15.08874819,0.0001508,53.2178,338.745,103.3812,256.7348,0.00079034,0.00012325,0.0,0 STARLINK-5108,1 53992U 22125AE  24050.19032421  .00012325  00000-0  79034-3 0  9992,2 53992  53.2178 338.7450 0001508 103.3812 256.7348 15.08874819 76388,6917.774,95.435,540.682,538.596,0.0
53992.0,STARLINK-5108,PAYLOAD,2024-02-19 12:31:00,15.08836192,0.0001901,53.2204,337.261,79.8144,280.3063,-0.00056943,-9.338e-05,0.0,0 STARLINK-5108,1 53992U 22125AE  24050.52153197 -.00009338  00000-0 -56943-3 0  9999,2 53992  53.2204 337.2610 0001901  79.8144 280.3063 15.08836192 76358,6917.892,95.438,541.072,538.442,0.0
53992.0,STARLINK-5108,PAYLOAD,2024-02-19 18:52:33,15.08835029,0.0002433,53.2185,336.0729,81.7208,278.406,-0.00011318,-2.089e-05,0.0,0 STARLINK-5108,1 53992U 22125AE  24050.78649959 -.00002089  00000-0 -11318-3 0  9996,2 53992  53.2185 336.0729 0002433  81.7208 278.4060 15.08835029 76474,6917.896,95.438,541.444,538.077,0.0
53992.0,STARLINK-5108,PAYLOAD,2024-02-20 04:24:52,15.08820802,0.0001834,53.218,334.2886,85.552,274.5682,-0.00026783,-4.546e-05,0.0,0 STARLINK-5108,1 53992U 22125AE  24051.18394421 -.00004546  00000-0 -26783-3 0  9994,2 53992  53.2180 334.2886 0001834  85.5520 274.5682 15.08820802 76533,6917.939,95.439,541.073,538.535,0.0
53992.0,STARLINK-5108,PAYLOAD,2024-02-20 12:21:48,15.08833049,0.000179,53.2191,332.8023,83.0621,277.0574,9.0953e-05,1.159e-05,0.0,0 STARLINK-5108,1 53992U 22125AE  24051.51514501  .00001159  00000-0  90953-4 0  9990,2 53992  53.2191 332.8023 0001790  83.0621 277.0574 15.08833049 76500,6917.902,95.438,541.005,538.528,0.0
53992.0,STARLINK-5108,PAYLOAD,2024-02-20 23:29:30,15.08851812,0.0001363,53.2165,330.72,85.155,274.9598,0.001044,0.00016372,0.0,0 STARLINK-5108,1 53992U 22125AE  24051.97882291  .00016372  00000-0  10440-2 0  9998,2 53992  53.2165 330.7200 0001363  85.1550 274.9598 15.08851812 76572,6917.844,95.437,540.652,538.766,0.0
53992.0,STARLINK-5108,PAYLOAD,2024-02-21 01:04:53,15.08860979,0.0001438,53.217,330.4227,81.3408,278.7747,0.0014525,0.00022917,0.0,0 STARLINK-5108,1 53992U 22125AE  24052.04506253  .00022917  00000-0  14525-2 0  9998,2 53992  53.2170 330.4227 0001438  81.3408 278.7747 15.08860979 76669,6917.816,95.436,540.676,538.686,0.0
53992.0,STARLINK-5108,PAYLOAD,2024-02-21 04:15:39,15.08872773,0.0001404,53.2171,329.8282,82.729,277.3861,0.001656,0.00026189,0.0,0 STARLINK-5108,1 53992U 22125AE  24052.17753914  .00026189  00000-0  16560-2 0  9996,2 53992  53.2171 329.8282 0001404  82.7290 277.3861 15.08872773 76601,6917.78,95.435,540.616,538.674,0.0
